H1 CPF  1  DGF 2022 09 29 04  7721 larets     NONE      
H2   304206 5557    27944 2022 09 28 00 00 00 2022 10 05 00 00 00    30 1 1  0 0 0
H5  0.0650
H9
10 0 59856  43200.000000  0      -3782154.231      -3301989.286      -4962823.390
10 0 59856  43230.000000  0      -3934294.026      -3359600.862      -4803273.891
10 0 59856  43260.000000  0      -4082691.592      -3413151.704      -4638822.717
10 0 59856  43290.000000  0      -4227177.848      -3462603.546      -4469636.656
10 0 59856  43320.000000  0      -4367587.462      -3507922.992      -4295887.413
10 0 59856  43350.000000  0      -4503759.053      -3549081.542      -4117751.442
10 0 59856  43380.000000  0      -4635535.376      -3586055.604      -3935409.770
10 0 59856  43410.000000  0      -4762763.517      -3618826.508      -3749047.814
10 0 59856  43440.000000  0      -4885295.076      -3647380.511      -3558855.195
10 0 59856  43470.000000  0      -5002986.343      -3671708.797      -3365025.548
10 0 59856  43500.000000  0      -5115698.481      -3691807.469      -3167756.321
10 0 59856  43530.000000  0      -5223297.692      -3707677.538      -2967248.577
10 0 59856  43560.000000  0      -5325655.383      -3719324.906      -2763706.784
10 0 59856  43590.000000  0      -5422648.331      -3726760.336      -2557338.604
10 0 59856  43620.000000  0      -5514158.828      -3729999.428      -2348354.681
10 0 59856  43650.000000  0      -5600074.835      -3729062.574      -2136968.421
10 0 59856  43680.000000  0      -5680290.122      -3723974.925      -1923395.771
10 0 59856  43710.000000  0      -5754704.407      -3714766.336      -1707854.999
10 0 59856  43740.000000  0      -5823223.485      -3701471.321      -1490566.457
10 0 59856  43770.000000  0      -5885759.351      -3684128.987      -1271752.353
10 0 59856  43800.000000  0      -5942230.315      -3662782.971      -1051636.515
10 0 59856  43830.000000  0      -5992561.107      -3637481.365       -830444.160
10 0 59856  43860.000000  0      -6036682.983      -3608276.648       -608401.655
10 0 59856  43890.000000  0      -6074533.815      -3575225.596       -385736.277
10 0 59856  43920.000000  0      -6106058.184      -3538389.205       -162675.973
10 0 59856  43950.000000  0      -6131207.452      -3497832.594         60550.879
10 0 59856  43980.000000  0      -6149939.837      -3453624.909        283715.722
10 0 59856  44010.000000  0      -6162220.473      -3405839.225        506590.056
10 0 59856  44040.000000  0      -6168021.460      -3354552.434        728945.690
10 0 59856  44070.000000  0      -6167321.913      -3299845.138        950554.975
10 0 59856  44100.000000  0      -6160107.992      -3241801.532       1171191.057
10 0 59856  44130.000000  0      -6146372.931      -3180509.282       1390628.109
10 0 59856  44160.000000  0      -6126117.058      -3116059.405       1608641.575
10 0 59856  44190.000000  0      -6099347.801      -3048546.135       1825008.405
10 0 59856  44220.000000  0      -6066079.690      -2978066.795       2039507.289
10 0 59856  44250.000000  0      -6026334.353      -2904721.664       2251918.886
10 0 59856  44280.000000  0      -5980140.500      -2828613.842       2462026.053
10 0 59856  44310.000000  0      -5927533.908      -2749849.107       2669614.076
10 0 59856  44340.000000  0      -5868557.385      -2668535.781       2874470.893
10 0 59856  44370.000000  0      -5803260.734      -2584784.579       3076387.320
10 0 59856  44400.000000  0      -5731700.705      -2498708.460       3275157.271
10 0 59856  44430.000000  0      -5653940.933      -2410422.478       3470577.970
10 0 59856  44460.000000  0      -5570051.875      -2320043.628       3662450.160
10 0 59856  44490.000000  0      -5480110.738      -2227690.692       3850578.306
10 0 59856  44520.000000  0      -5384201.393      -2133484.083       4034770.796
10 0 59856  44550.000000  0      -5282414.296      -2037545.692       4214840.129
10 0 59856  44580.000000  0      -5174846.386      -1939998.729       4390603.107
10 0 59856  44610.000000  0      -5061600.990      -1840967.572       4561881.019
10 0 59856  44640.000000  0      -4942787.711      -1740577.601       4728499.816
10 0 59856  44670.000000  0      -4818522.317      -1638955.051       4890290.286
10 0 59856  44700.000000  0      -4688926.619      -1536226.851       5047088.221
10 0 59856  44730.000000  0      -4554128.343      -1432520.464       5198734.579
10 0 59856  44760.000000  0      -4414261.003      -1327963.739       5345075.643
10 0 59856  44790.000000  0      -4269463.754      -1222684.748       5485963.172
10 0 59856  44820.000000  0      -4119881.252      -1116811.632       5621254.548
10 0 59856  44850.000000  0      -3965663.495      -1010472.443       5750812.917
10 0 59856  44880.000000  0      -3806965.668       -903794.994       5874507.316
10 0 59856  44910.000000  0      -3643947.981       -796906.704       5992212.802
10 0 59856  44940.000000  0      -3476775.497       -689934.445       6103810.574
10 0 59856  44970.000000  0      -3305617.960       -583004.398       6209188.082
10 0 59856  45000.000000  0      -3130649.614       -476241.897       6308239.133
10 0 59856  45030.000000  0      -2952049.019       -369771.293       6400863.991
10 0 59856  45060.000000  0      -2769998.865       -263715.804       6486969.466
10 0 59856  45090.000000  0      -2584685.782       -158197.385       6566468.997
10 0 59856  45120.000000  0      -2396300.146        -53336.582       6639282.736
10 0 59856  45150.000000  0      -2205035.878         50747.596       6705337.621
10 0 59856  45180.000000  0      -2011090.249        153937.812       6764567.437
10 0 59856  45210.000000  0      -1814663.670        256118.529       6816912.883
10 0 59856  45240.000000  0      -1615959.485        357176.142       6862321.622
10 0 59856  45270.000000  0      -1415183.766        456999.099       6900748.326
10 0 59856  45300.000000  0      -1212545.094        555478.022       6932154.719
10 0 59856  45330.000000  0      -1008254.346        652505.823       6956509.608
10 0 59856  45360.000000  0       -802524.476        747977.825       6973788.914
10 0 59856  45390.000000  0       -595570.296        841791.864       6983975.686
10 0 59856  45420.000000  0       -387608.249        933848.404       6987060.118
10 0 59856  45450.000000  0       -178856.195       1024050.636       6983039.559
10 0 59856  45480.000000  0         30466.824       1112304.582       6971918.509
10 0 59856  45510.000000  0        240140.807       1198519.191       6953708.619
10 0 59856  45540.000000  0        449945.028       1282606.432       6928428.675
10 0 59856  45570.000000  0        659658.260       1364481.384       6896104.577
10 0 59856  45600.000000  0        869059.011       1444062.319       6856769.316
10 0 59856  45630.000000  0       1077925.752       1521270.785       6810462.935
10 0 59856  45660.000000  0       1286037.149       1596031.679       6757232.499
10 0 59856  45690.000000  0       1493172.295       1668273.320       6697132.043
10 0 59856  45720.000000  0       1699110.943       1737927.519       6630222.522
10 0 59856  45750.000000  0       1903633.737       1804929.640       6556571.756
10 0 59856  45780.000000  0       2106522.442       1869218.662       6476254.364
10 0 59856  45810.000000  0       2307560.176       1930737.233       6389351.697
10 0 59856  45840.000000  0       2506531.646       1989431.720       6295951.760
10 0 59856  45870.000000  0       2703223.378       2045252.260       6196149.130
10 0 59856  45900.000000  0       2897423.949       2098152.799       6090044.864
10 0 59856  45930.000000  0       3088924.210       2148091.126       5977746.397
10 0 59856  45960.000000  0       3277517.517       2195028.910       5859367.445
10 0 59856  45990.000000  0       3462999.951       2238931.725       5735027.891
10 0 59856  46020.000000  0       3645170.540       2279769.073       5604853.672
10 0 59856  46050.000000  0       3823831.479       2317514.408       5468976.657
10 0 59856  46080.000000  0       3998788.344       2352145.143       5327534.519
10 0 59856  46110.000000  0       4169850.308       2383642.667       5180670.609
10 0 59856  46140.000000  0       4336830.353       2411992.345       5028533.812
10 0 59856  46170.000000  0       4499545.481       2437183.525       4871278.406
10 0 59856  46200.000000  0       4657816.917       2459209.528       4709063.912
10 0 59856  46230.000000  0       4811470.314       2478067.640       4542054.938
10 0 59856  46260.000000  0       4960335.957       2493759.099       4370421.019
10 0 59856  46290.000000  0       5104248.963       2506289.075       4194336.450
10 0 59856  46320.000000  0       5243049.475       2515666.648       4013980.096
10 0 59856  46350.000000  0       5376582.837       2521904.773       3829535.206
10 0 59856  46380.000000  0       5504699.763       2525020.241       3641189.230
10 0 59856  46410.000000  0       5627256.496       2525033.646       3449133.636
10 0 59856  46440.000000  0       5744114.991       2521969.342       3253563.732
10 0 59856  46470.000000  0       5855143.074       2515855.398       3054678.461
10 0 59856  46500.000000  0       5960214.606       2506723.545       2852680.199
10 0 59856  46530.000000  0       6059209.631       2494609.121       2647774.549
10 0 59856  46560.000000  0       6152014.515       2479551.008       2440170.128
10 0 59856  46590.000000  0       6238522.090       2461591.566       2230078.355
10 0 59856  46620.000000  0       6318631.777       2440776.567       2017713.229
10 0 59856  46650.000000  0       6392249.713       2417155.113       1803291.112
10 0 59856  46680.000000  0       6459288.862       2390779.564       1587030.501
10 0 59856  46710.000000  0       6519669.124       2361705.449       1369151.806
10 0 59856  46740.000000  0       6573317.432       2329991.383       1149877.117
10 0 59856  46770.000000  0       6620167.845       2295698.981        929429.975
99
